IXPE                    
1 49954U 21121A   24073.91668981  .00006930  00000+0  51926-3 0  9995
2 49954   0.2304  19.8357 0009833 307.5377 221.7814 14.96829775  5648
